$$SOE
2461295.500000000, A.D. 2026-Sep-12 00:00:00.0000, -3.564400476147961E+08, -2.438144398974426E+08, 1.961749913616253E+07,
2461302.500000000, A.D. 2026-Sep-19 00:00:00.0000, -3.503914638597811E+08, -2.525469625076811E+08, 2.144827255698045E+07,
2461309.500000000, A.D. 2026-Sep-26 00:00:00.0000, -3.441325528936791E+08, -2.611278965508197E+08, 2.326617177210930E+07,
2461316.500000000, A.D. 2026-Oct-03 00:00:00.0000, -3.376673078947918E+08, -2.695522730534967E+08, 2.507012154677846E+07,
2461323.500000000, A.D. 2026-Oct-10 00:00:00.0000, -3.309998486384376E+08, -2.778152383266688E+08, 2.685905835459358E+07,
2461330.500000000, A.D. 2026-Oct-17 00:00:00.0000, -3.241344177373745E+08, -2.859120571862436E+08, 2.863193116456909E+07,
2461337.500000000, A.D. 2026-Oct-24 00:00:00.0000, -3.170753767968965E+08, -2.938381161220008E+08, 3.038770220139389E+07,
2461344.500000000, A.D. 2026-Oct-31 00:00:00.0000, -3.098272023928429E+08, -3.015889264784783E+08, 3.212534766371852E+07,
2461351.500000000, A.D. 2026-Nov-07 00:00:00.0000, -3.023944815404507E+08, -3.091601275711280E+08, 3.384385837478241E+07,
2461358.500000000, A.D. 2026-Nov-14 00:00:00.0000, -2.947819064600959E+08, -3.165474888478855E+08, 3.554224041890468E+07,
2461365.500000000, A.D. 2026-Nov-21 00:00:00.0000, -2.869942704580889E+08, -3.237469104118912E+08, 3.721951598511636E+07,
2461372.500000000, A.D. 2026-Nov-28 00:00:00.0000, -2.790364659267548E+08, -3.307544249121592E+08, 3.887472426302028E+07,
2461379.500000000, A.D. 2026-Dec-05 00:00:00.0000, -2.709134808517616E+08, -3.375662014590311E+08, 4.050692200500487E+07,
2461386.500000000, A.D. 2026-Dec-12 00:00:00.0000, -2.626303936701387E+08, -3.441785484535011E+08, 4.211518399398693E+07,
2461393.500000000, A.D. 2026-Dec-19 00:00:00.0000, -2.541923683736703E+08, -3.505879153228426E+08, 4.369860359022065E+07,
2461400.500000000, A.D. 2026-Dec-26 00:00:00.0000, -2.456046500064963E+08, -3.567908940295610E+08, 4.525629329895529E+07,
2461407.500000000, A.D. 2027-Jan-02 00:00:00.0000, -2.368725602873295E+08, -3.627842205447119E+08, 4.678738531759495E+07,
2461414.500000000, A.D. 2027-Jan-09 00:00:00.0000, -2.280014932462054E+08, -3.685647762668628E+08, 4.829103205298485E+07,
2461421.500000000, A.D. 2027-Jan-16 00:00:00.0000, -2.189969108482812E+08, -3.741295893799942E+08, 4.976640660624544E+07,
2461428.500000000, A.D. 2027-Jan-23 00:00:00.0000, -2.098643385670639E+08, -3.794758361921141E+08, 5.121270321775250E+07,
2461435.500000000, A.D. 2027-Jan-30 00:00:00.0000, -2.006093607276726E+08, -3.846008425045239E+08, 5.262913765118504E+07,
2461442.500000000, A.D. 2027-Feb-06 00:00:00.0000, -1.912376152035678E+08, -3.895020846740695E+08, 5.401494750552191E+07,
2461449.500000000, A.D. 2027-Feb-13 00:00:00.0000, -1.817547879350176E+08, -3.941771891509609E+08, 5.536939259691393E+07,
2461456.500000000, A.D. 2027-Feb-20 00:00:00.0000, -1.721666096403807E+08, -3.986239312849954E+08, 5.669175556244829E+07,
2461463.500000000, A.D. 2027-Feb-27 00:00:00.0000, -1.624788533307846E+08, -4.028402366162762E+08, 5.798134229499249E+07,
2461470.500000000, A.D. 2027-Mar-06 00:00:00.0000, -1.526973296169263E+08, -4.068241827310098E+08, 5.923748208956625E+07,
2461477.500000000, A.D. 2027-Mar-13 00:00:00.0000, -1.428278814146692E+08, -4.105739996346737E+08, 6.045952781543013E+07,
2461484.500000000, A.D. 2027-Mar-20 00:00:00.0000, -1.328763791834021E+08, -4.140880694778995E+08, 6.164685614866669E+07,
2461491.500000000, A.D. 2027-Mar-27 00:00:00.0000, -1.228487164980334E+08, -4.173649261857086E+08, 6.279886780114810E+07,
2461498.500000000, A.D. 2027-Apr-03 00:00:00.0000, -1.127508057541054E+08, -4.204032550417225E+08, 6.391498772310622E+07,
2461505.500000000, A.D. 2027-Apr-10 00:00:00.0000, -1.025885739479126E+08, -4.232018922101934E+08, 6.499466527606016E+07,
2461512.500000000, A.D. 2027-Apr-17 00:00:00.0000, -9.236795851399292E+07, -4.257598242167628E+08, 6.603737437403241E+07,
2461519.500000000, A.D. 2027-Apr-24 00:00:00.0000, -8.209490314602996E+07, -4.280761874559758E+08, 6.704261358198480E+07,
2461526.500000000, A.D. 2027-May-01 00:00:00.0000, -7.177535330660573E+07, -4.301502677024008E+08, 6.800990614729682E+07,
2461533.500000000, A.D. 2027-May-08 00:00:00.0000, -6.141525112278291E+07, -4.319814988808295E+08, 6.893879999798191E+07,
2461540.500000000, A.D. 2027-May-15 00:00:00.0000, -5.102053116805356E+07, -4.335694601452777E+08, 6.982886792325932E+07,
2461547.500000000, A.D. 2027-May-22 00:00:00.0000, -4.059711869711542E+07, -4.349138738610270E+08, 7.067970786819926E+07,
2461554.500000000, A.D. 2027-May-29 00:00:00.0000, -3.015092697931268E+07, -4.360146059618233E+08, 7.149094291498592E+07,
2461561.500000000, A.D. 2027-Jun-05 00:00:00.0000, -1.968785284817436E+07, -4.368716655556844E+08, 7.226222112646310E+07,
2461568.500000000, A.D. 2027-Jun-12 00:00:00.0000, -9.213772477315174E+06, -4.374852033520887E+08, 7.299321547220671E+07,
2461575.500000000, A.D. 2027-Jun-19 00:00:00.0000, 1.265462283850832E+06, -4.378555098491950E+08, 7.368362379162151E+07,
2461582.500000000, A.D. 2027-Jun-26 00:00:00.0000, 1.174402729210130E+07, -4.379830135456649E+08, 7.433316874746157E+07,
2461589.500000000, A.D. 2027-Jul-03 00:00:00.0000, 2.221612934100257E+07, -4.378682791719090E+08, 7.494159775863095E+07,
2461596.500000000, A.D. 2027-Jul-10 00:00:00.0000, 3.267600927655648E+07, -4.375120059354478E+08, 7.550868290999502E+07,
2461603.500000000, A.D. 2027-Jul-17 00:00:00.0000, 4.311794503442729E+07, -4.369150258235290E+08, 7.603422083349782E+07,
2461610.500000000, A.D. 2027-Jul-24 00:00:00.0000, 5.353625475527865E+07, -4.360783020309957E+08, 7.651803254238945E+07,
2461617.500000000, A.D. 2027-Jul-31 00:00:00.0000, 6.392530038925025E+07, -4.350029272834734E+08, 7.695996320160142E+07,
2461624.500000000, A.D. 2027-Aug-07 00:00:00.0000, 7.427949158792071E+07, -4.336901209094279E+08, 7.735988194819443E+07,
2461631.500000000, A.D. 2027-Aug-14 00:00:00.0000, 8.459328758146369E+07, -4.321412249184964E+08, 7.771768195308967E+07,
2461638.500000000, A.D. 2027-Aug-21 00:00:00.0000, 9.486119765878849E+07, -4.303577024531884E+08, 7.803328039274944E+07,
2461645.500000000, A.D. 2027-Aug-28 00:00:00.0000, 1.050777836823428E+08, -4.283411374144642E+08, 7.830661811498663E+07,
2461652.500000000, A.D. 2027-Sep-04 00:00:00.0000, 1.152376634568943E+08, -4.260932327635298E+08, 7.853765931257482E+07,
2461659.500000000, A.D. 2027-Sep-11 00:00:00.0000, 1.253355135571333E+08, -4.236158081652450E+08, 7.872639127921006E+07,
2461666.500000000, A.D. 2027-Sep-18 00:00:00.0000, 1.353660717476074E+08, -4.209107976267529E+08, 7.887282418286803E+07,
2461673.500000000, A.D. 2027-Sep-25 00:00:00.0000, 1.453241392243817E+08, -4.179802472120522E+08, 7.897699082952683E+07,
2461680.500000000, A.D. 2027-Oct-02 00:00:00.0000, 1.552045827541598E+08, -4.148263128077046E+08, 7.903894641283438E+07,
2461687.500000000, A.D. 2027-Oct-09 00:00:00.0000, 1.650023367343848E+08, -4.114512579465799E+08, 7.905876824741979E+07,
2461694.500000000, A.D. 2027-Oct-16 00:00:00.0000, 1.747124052391841E+08, -4.078574517469372E+08, 7.903655547584216E+07,
2461701.500000000, A.D. 2027-Oct-23 00:00:00.0000, 1.843298643131761E+08, -4.040473669755839E+08, 7.897242872556433E+07,
2461708.500000000, A.D. 2027-Oct-30 00:00:00.0000, 1.938498648897261E+08, -4.000235776286360E+08, 7.886652973253277E+07,
2461715.500000000, A.D. 2027-Nov-06 00:00:00.0000, 2.032676351710501E+08, -3.957887549056342E+08, 7.871902113123073E+07,
2461722.500000000, A.D. 2027-Nov-13 00:00:00.0000, 2.125784804844499E+08, -3.913456636556030E+08, 7.853008642382342E+07,
2461729.500000000, A.D. 2027-Nov-20 00:00:00.0000, 2.217777835165507E+08, -3.866971614814883E+08, 7.829992968313925E+07,
2461736.500000000, A.D. 2027-Nov-27 00:00:00.0000, 2.308610065443684E+08, -3.818461975391985E+08, 7.802877508314700E+07,
2461743.500000000, A.D. 2027-Dec-04 00:00:00.0000, 2.398236936415799E+08, -3.767958101184394E+08, 7.771686651724112E+07,
2461750.500000000, A.D. 2027-Dec-11 00:00:00.0000, 2.486614723120749E+08, -3.715491239705050E+08, 7.736446727634101E+07,
2461757.500000000, A.D. 2027-Dec-18 00:00:00.0000, 2.573700548290564E+08, -3.661093477241081E+08, 7.697185973470144E+07,
2461764.500000000, A.D. 2027-Dec-25 00:00:00.0000, 2.659452394347462E+08, -3.604797713944084E+08, 7.653934503057642E+07,
2461771.500000000, A.D. 2028-Jan-01 00:00:00.0000, 2.743829114442108E+08, -3.546637639739235E+08, 7.606724274033219E+07,
$$EOE